[{"OBJECT_NAME":"OBJECT E","OBJECT_ID":"2022-023E","EPOCH":"2026-03-09T23:07:18.009696","MEAN_MOTION":13.56268386,"ECCENTRICITY":0.01511306,"INCLINATION":63.4608,"RA_OF_ASC_NODE":212.7399,"ARG_OF_PERICENTER":348.7592,"MEAN_ANOMALY":11.0076,"EPHEMERIS_TYPE":0,"CLASSIFICATION_TYPE":"U","NORAD_CAT_ID":51950,"ELEMENT_SET_NO":999,"REV_AT_EPOCH":20857,"BSTAR":0.00011607077,"MEAN_MOTION_DOT":-5.0e-8,"MEAN_MOTION_DDOT":0},{"OBJECT_NAME":"COSMOS 890","OBJECT_ID":"1977-004A","EPOCH":"2026-03-09T22:11:27.339936","MEAN_MOTION":13.7191611,"ECCENTRICITY":0.00256833,"INCLINATION":82.9567,"RA_OF_ASC_NODE":237.9806,"ARG_OF_PERICENTER":198.815,"MEAN_ANOMALY":271.3021,"EPHEMERIS_TYPE":0,"CLASSIFICATION_TYPE":"U","NORAD_CAT_ID":9737,"ELEMENT_SET_NO":999,"REV_AT_EPOCH":45872,"BSTAR":3.2079188e-5,"MEAN_MOTION_DOT":4.4e-7,"MEAN_MOTION_DDOT":0}]
